CCSDS_OMM_VERS = 2.0
CREATION_DATE  = 
ORIGINATOR     = 

OBJECT_NAME    = ATLAS CENTAUR 2
OBJECT_ID      = 1963-047A
CENTER_NAME    = EARTH
REF_FRAME      = TEME
TIME_SYSTEM    = UTC
MEAN_ELEMENT_THEORY = SGP/SGP4

EPOCH          = 2026-04-05T13:12:12.564288
MEAN_MOTION    = 14.12196404
ECCENTRICITY   = .0547038
INCLINATION    = 30.3576
RA_OF_ASC_NODE = 45.5192
ARG_OF_PERICENTER = 317.0189
MEAN_ANOMALY   = 38.8893

EPHEMERIS_TYPE = 0
CLASSIFICATION_TYPE = U
NORAD_CAT_ID   = 694
ELEMENT_SET_NO = 999
REV_AT_EPOCH   = 13542
BSTAR          = .45906E-3
MEAN_MOTION_DOT = .3849E-4
MEAN_MOTION_DDOT = 0

CCSDS_OMM_VERS = 2.0
CREATION_DATE  = 
ORIGINATOR     = 

OBJECT_NAME    = THOR AGENA D R/B
OBJECT_ID      = 1964-002A
CENTER_NAME    = EARTH
REF_FRAME      = TEME
TIME_SYSTEM    = UTC
MEAN_ELEMENT_THEORY = SGP/SGP4

EPOCH          = 2026-04-05T20:57:29.028960
MEAN_MOTION    = 14.34035404
ECCENTRICITY   = .0032975
INCLINATION    = 99.1208
RA_OF_ASC_NODE = 110.6914
ARG_OF_PERICENTER = 177.6162
MEAN_ANOMALY   = 182.5184

EPHEMERIS_TYPE = 0
CLASSIFICATION_TYPE = U
NORAD_CAT_ID   = 733
ELEMENT_SET_NO = 999
REV_AT_EPOCH   = 24219
BSTAR          = .10733E-3
MEAN_MOTION_DOT = .253E-5
MEAN_MOTION_DDOT = 0

CCSDS_OMM_VERS = 2.0
CREATION_DATE  = 
ORIGINATOR     = 

OBJECT_NAME    = SL-3 R/B
OBJECT_ID      = 1964-053B
CENTER_NAME    = EARTH
REF_FRAME      = TEME
TIME_SYSTEM    = UTC
MEAN_ELEMENT_THEORY = SGP/SGP4

EPOCH          = 2026-04-05T18:59:58.062336
MEAN_MOTION    = 14.61388715
ECCENTRICITY   = .0080659
INCLINATION    = 65.0759
RA_OF_ASC_NODE = 251.7756
ARG_OF_PERICENTER = 283.7045
MEAN_ANOMALY   = 75.5084

EPHEMERIS_TYPE = 0
CLASSIFICATION_TYPE = U
NORAD_CAT_ID   = 877
ELEMENT_SET_NO = 999
REV_AT_EPOCH   = 27075
BSTAR          = .92405E-4
MEAN_MOTION_DOT = .353E-5
MEAN_MOTION_DDOT = 0

CCSDS_OMM_VERS = 2.0
CREATION_DATE  = 
ORIGINATOR     = 

OBJECT_NAME    = SL-8 R/B
OBJECT_ID      = 1967-045B
CENTER_NAME    = EARTH
REF_FRAME      = TEME
TIME_SYSTEM    = UTC
MEAN_ELEMENT_THEORY = SGP/SGP4

EPOCH          = 2026-04-05T20:10:14.047104
MEAN_MOTION    = 14.45644421
ECCENTRICITY   = .0065086
INCLINATION    = 74.0100
RA_OF_ASC_NODE = 297.3830
ARG_OF_PERICENTER = 297.7220
MEAN_ANOMALY   = 61.7344

EPHEMERIS_TYPE = 0
CLASSIFICATION_TYPE = U
NORAD_CAT_ID   = 2802
ELEMENT_SET_NO = 999
REV_AT_EPOCH   = 9294
BSTAR          = .10752E-3
MEAN_MOTION_DOT = .361E-5
MEAN_MOTION_DDOT = 0

CCSDS_OMM_VERS = 2.0
CREATION_DATE  = 
ORIGINATOR     = 

OBJECT_NAME    = SL-8 R/B
OBJECT_ID      = 1968-040B
CENTER_NAME    = EARTH
REF_FRAME      = TEME
TIME_SYSTEM    = UTC
MEAN_ELEMENT_THEORY = SGP/SGP4

EPOCH          = 2026-04-05T20:39:23.469120
MEAN_MOTION    = 15.03463176
ECCENTRICITY   = .0023212
INCLINATION    = 74.0301
RA_OF_ASC_NODE = 258.1612
ARG_OF_PERICENTER = 70.6890
MEAN_ANOMALY   = 289.6806

EPHEMERIS_TYPE = 0
CLASSIFICATION_TYPE = U
NORAD_CAT_ID   = 3230
ELEMENT_SET_NO = 999
REV_AT_EPOCH   = 9409
BSTAR          = .35553E-3
MEAN_MOTION_DOT = .4832E-4
MEAN_MOTION_DDOT = 0

CCSDS_OMM_VERS = 2.0
CREATION_DATE  = 
ORIGINATOR     = 

OBJECT_NAME    = OAO 2
OBJECT_ID      = 1968-110A
CENTER_NAME    = EARTH
REF_FRAME      = TEME
TIME_SYSTEM    = UTC
MEAN_ELEMENT_THEORY = SGP/SGP4

EPOCH          = 2026-04-05T18:10:11.820000
MEAN_MOTION    = 14.47324086
ECCENTRICITY   = .0005096
INCLINATION    = 34.9924
RA_OF_ASC_NODE = 114.0939
ARG_OF_PERICENTER = 51.0814
MEAN_ANOMALY   = 309.0331

EPHEMERIS_TYPE = 0
CLASSIFICATION_TYPE = U
NORAD_CAT_ID   = 3597
ELEMENT_SET_NO = 999
REV_AT_EPOCH   = 2302
BSTAR          = .88335E-4
MEAN_MOTION_DOT = .309E-5
MEAN_MOTION_DDOT = 0

CCSDS_OMM_VERS = 2.0
CREATION_DATE  = 
ORIGINATOR     = 

OBJECT_NAME    = ISIS 1
OBJECT_ID      = 1969-009A
CENTER_NAME    = EARTH
REF_FRAME      = TEME
TIME_SYSTEM    = UTC
MEAN_ELEMENT_THEORY = SGP/SGP4

EPOCH          = 2026-04-05T17:05:30.362208
MEAN_MOTION    = 11.30421559
ECCENTRICITY   = .1707742
INCLINATION    = 88.4490
RA_OF_ASC_NODE = 152.3577
ARG_OF_PERICENTER = 34.6490
MEAN_ANOMALY   = 335.4707

EPHEMERIS_TYPE = 0
CLASSIFICATION_TYPE = U
NORAD_CAT_ID   = 3669
ELEMENT_SET_NO = 999
REV_AT_EPOCH   = 35158
BSTAR          = .11689E-3
MEAN_MOTION_DOT = .18E-5
MEAN_MOTION_DDOT = 0

CCSDS_OMM_VERS = 2.0
CREATION_DATE  = 
ORIGINATOR     = 

OBJECT_NAME    = SERT 2
OBJECT_ID      = 1970-009A
CENTER_NAME    = EARTH
REF_FRAME      = TEME
TIME_SYSTEM    = UTC
MEAN_ELEMENT_THEORY = SGP/SGP4

EPOCH          = 2026-04-05T19:05:20.134752
MEAN_MOTION    = 13.58733003
ECCENTRICITY   = .0005756
INCLINATION    = 99.2795
RA_OF_ASC_NODE = 37.4111
ARG_OF_PERICENTER = 94.2002
MEAN_ANOMALY   = 320.1711

EPHEMERIS_TYPE = 0
CLASSIFICATION_TYPE = U
NORAD_CAT_ID   = 4327
ELEMENT_SET_NO = 999
REV_AT_EPOCH   = 78357
BSTAR          = .1505E-3
MEAN_MOTION_DOT = .69E-6
MEAN_MOTION_DDOT = 0

CCSDS_OMM_VERS = 2.0
CREATION_DATE  = 
ORIGINATOR     = 

OBJECT_NAME    = SL-3 R/B
OBJECT_ID      = 1971-028B
CENTER_NAME    = EARTH
REF_FRAME      = TEME
TIME_SYSTEM    = UTC
MEAN_ELEMENT_THEORY = SGP/SGP4

EPOCH          = 2026-04-05T19:29:44.106720
MEAN_MOTION    = 15.63737403
ECCENTRICITY   = .0015503
INCLINATION    = 81.2382
RA_OF_ASC_NODE = 18.4737
ARG_OF_PERICENTER = 176.3501
MEAN_ANOMALY   = 183.7869

EPHEMERIS_TYPE = 0
CLASSIFICATION_TYPE = U
NORAD_CAT_ID   = 5118
ELEMENT_SET_NO = 999
REV_AT_EPOCH   = 99290
BSTAR          = .58244E-3
MEAN_MOTION_DOT = .54955E-3
MEAN_MOTION_DDOT = 0

CCSDS_OMM_VERS = 2.0
CREATION_DATE  = 
ORIGINATOR     = 

OBJECT_NAME    = ASTEX 1
OBJECT_ID      = 1971-089A
CENTER_NAME    = EARTH
REF_FRAME      = TEME
TIME_SYSTEM    = UTC
MEAN_ELEMENT_THEORY = SGP/SGP4

EPOCH          = 2026-04-05T17:19:13.724832
MEAN_MOTION    = 14.50799561
ECCENTRICITY   = .0015363
INCLINATION    = 92.7080
RA_OF_ASC_NODE = 160.4948
ARG_OF_PERICENTER = 2.0826
MEAN_ANOMALY   = 358.0441

EPHEMERIS_TYPE = 0
CLASSIFICATION_TYPE = U
NORAD_CAT_ID   = 5560
ELEMENT_SET_NO = 999
REV_AT_EPOCH   = 86622
BSTAR          = .16937E-3
MEAN_MOTION_DOT = .666E-5
MEAN_MOTION_DDOT = 0

CCSDS_OMM_VERS = 2.0
CREATION_DATE  = 
ORIGINATOR     = 

OBJECT_NAME    = SL-8 R/B
OBJECT_ID      = 1971-119B
CENTER_NAME    = EARTH
REF_FRAME      = TEME
TIME_SYSTEM    = UTC
MEAN_ELEMENT_THEORY = SGP/SGP4

EPOCH          = 2026-04-05T18:53:39.535296
MEAN_MOTION    = 14.38374606
ECCENTRICITY   = .0545844
INCLINATION    = 73.8839
RA_OF_ASC_NODE = 125.0492
ARG_OF_PERICENTER = 85.9367
MEAN_ANOMALY   = 280.3961

EPHEMERIS_TYPE = 0
CLASSIFICATION_TYPE = U
NORAD_CAT_ID   = 5730
ELEMENT_SET_NO = 999
REV_AT_EPOCH   = 65938
BSTAR          = .42836E-3
MEAN_MOTION_DOT = .8189E-4
MEAN_MOTION_DDOT = 0

CCSDS_OMM_VERS = 2.0
CREATION_DATE  = 
ORIGINATOR     = 

OBJECT_NAME    = OAO 3 (COPERNICUS)
OBJECT_ID      = 1972-065A
CENTER_NAME    = EARTH
REF_FRAME      = TEME
TIME_SYSTEM    = UTC
MEAN_ELEMENT_THEORY = SGP/SGP4

EPOCH          = 2026-04-05T20:05:51.720288
MEAN_MOTION    = 14.60020988
ECCENTRICITY   = .0006453
INCLINATION    = 35.0046
RA_OF_ASC_NODE = 142.6390
ARG_OF_PERICENTER = 17.7619
MEAN_ANOMALY   = 150.8030

EPHEMERIS_TYPE = 0
CLASSIFICATION_TYPE = U
NORAD_CAT_ID   = 6153
ELEMENT_SET_NO = 999
REV_AT_EPOCH   = 85016
BSTAR          = .94416E-4
MEAN_MOTION_DOT = .439E-5
MEAN_MOTION_DDOT = 0

