ATLAS CENTAUR 2         
1 00694U 63047A   26095.55014542  .00003849  00000+0  45906-3 0  9997
2 00694  30.3576  45.5192 0547038 317.0189  38.8893 14.12196404135423
THOR AGENA D R/B        
1 00733U 64002A   26095.87325265  .00000253  00000+0  10733-3 0  9991
2 00733  99.1208 110.6914 0032975 177.6162 182.5184 14.34035404242197
SL-3 R/B                
1 00877U 64053B   26095.79164424  .00000353  00000+0  92405-4 0  9993
2 00877  65.0759 251.7756 0080659 283.7045  75.5084 14.61388715270750
SL-8 R/B                
1 02802U 67045B   26095.84044036  .00000361  00000+0  10752-3 0  9992
2 02802  74.0100 297.3830 0065086 297.7220  61.7344 14.45644421 92946
SL-8 R/B                
1 03230U 68040B   26095.86068830  .00004832  00000+0  35553-3 0  9997
2 03230  74.0301 258.1612 0023212  70.6890 289.6806 15.03463176 94097
OAO 2                   
1 03597U 68110A   26095.75708125  .00000309  00000+0  88335-4 0  9999
2 03597  34.9924 114.0939 0005096  51.0814 309.0331 14.47324086 23028
ISIS 1                  
1 03669U 69009A   26095.71215697  .00000180  00000+0  11689-3 0  9994
2 03669  88.4490 152.3577 1707742  34.6490 335.4707 11.30421559351585
SERT 2                  
1 04327U 70009A   26095.79537193  .00000069  00000+0  15050-3 0  9996
2 04327  99.2795  37.4111 0005756  94.2002 320.1711 13.58733003783574
SL-3 R/B                
1 05118U 71028B   26095.81231605  .00054955  00000+0  58244-3 0  9994
2 05118  81.2382  18.4737 0015503 176.3501 183.7869 15.63737403992908
ASTEX 1                 
1 05560U 71089A   26095.72168663  .00000666  00000+0  16937-3 0  9998
2 05560  92.7080 160.4948 0015363   2.0826 358.0441 14.50799561866228
SL-8 R/B                
1 05730U 71119B   26095.78726314  .00008189  00000+0  42836-3 0  9995
2 05730  73.8839 125.0492 0545844  85.9367 280.3961 14.38374606659388
OAO 3 (COPERNICUS)      
1 06153U 72065A   26095.83740417  .00000439  00000+0  94416-4 0  9994
2 06153  35.0046 142.6390 0006453  17.7619 150.8030 14.60020988850164
